STARLINK-5757           
1 55580U 23020M   25068.94328342  .00002991  00000+0  23647-3 0  9991
2 55580  43.0030 160.4368 0001954 269.4221  90.6398 15.02525225114356
STARLINK-5753           
1 55581U 23020N   25069.49457658 -.00000463  00000+0 -19221-4 0  9994
2 55581  43.0017 183.6808 0001039 272.8083  87.2641 15.02527356114132
STARLINK-5741           
1 55582U 23020P   25069.62504186 -.00000575  00000+0 -28225-4 0  9997
2 55582  43.0049 169.9770 0001999 259.4667 100.5949 15.01722385114304
STARLINK-5742           
1 55583U 23020Q   25069.68735389 -.00000301  00000+0 -72460-5 0  9993
2 55583  43.0020 182.5500 0001340 296.3028  63.7676 15.02526216114164
STARLINK-5736           
1 55584U 23020R   25069.61865670 -.00001110  00000+0 -67159-4 0  9991
2 55584  43.0018 182.8931 0000889 291.3810  68.6938 15.02524135114156
STARLINK-5769           
1 55585U 23020S   25069.71647575 -.00001669  00000+0 -10854-3 0  9993
2 55585  43.0035 169.8087 0001338 267.8618  92.2071 15.02526608114313
STARLINK-5767           
1 55586U 23020T   25069.34496136 -.00000762  00000+0 -41314-4 0  9997
2 55586  43.0039 184.2827 0001489 275.9289  84.1383 15.02527629114110
STARLINK-5727           
1 55587U 23020U   25069.61642468 -.00001258  00000+0 -78096-4 0  9997
2 55587  43.0027 182.8169 0000946 266.0986  93.9748 15.02530781114153
STARLINK-5728           
1 55588U 23020V   25069.67070444 -.00001057  00000+0 -63228-4 0  9991
2 55588  43.0012 182.4268 0000822 258.5117 101.5633 15.02530293114167
STARLINK-5697           
1 55589U 23020W   25069.60976155  .00000068  00000+0  20066-4 0  9991
2 55589  43.0018 182.8214 0001185 274.6166  85.4541 15.02538960114151
STARLINK-5762           
1 55590U 23020X   25069.66404158 -.00001183  00000+0 -72501-4 0  9990
2 55590  43.0054 182.3754 0002088 245.5525 114.5100 15.02527095114169
STARLINK-5760           
1 55591U 23020Y   25069.67402435  .00000246  00000+0  33290-4 0  9997
2 55591  43.0016 182.4502 0000912 278.4154  81.6585 15.02536870114169
STARLINK-5759           
1 55592U 23020Z   25069.52663325  .00000950  00000+0  85351-4 0  9996
2 55592  43.0000 183.0628 0001102 248.3333 111.7392 15.02541341114144
STARLINK-5703           
1 55593U 23020AA  25069.60089361 -.00001042  00000+0 -62066-4 0  9991
2 55593  43.0016 182.7603 0001278 267.5372  92.5325 15.02531655114151
STARLINK-5750           
1 55594U 23020AB  25069.65627040  .00000772  00000+0  72238-4 0  9998
2 55594  43.0031 182.3168 0001161 274.7330  85.3380 15.02530142114168
STARLINK-5740           
1 55595U 23020AC  25069.66293176  .00005479  00000+0  42071-3 0  9999
2 55595  43.0016 182.3612 0000897 233.0705 127.0055 15.02504319114165
STARLINK-5729           
1 55596U 23020AD  25069.65404883 -.00000128  00000+0  55747-5 0  9991
2 55596  43.0024 182.3014 0001256 271.8505  88.2193 15.02529566114161
STARLINK-5743           
1 55597U 23020AE  25069.58018121  .00000475  00000+0  50255-4 0  9992
2 55597  43.0034 170.5059 0001290 274.7488  85.3207 15.02534677114298
STARLINK-5756           
1 55598U 23020AF  25069.39073073 -.00004172  00000+0 -29404-3 0  9990
2 55598  43.0015 171.6291 0001593 261.8764  98.1897 15.02527649114263
STARLINK-5761           
1 55599U 23020AG  25069.58683742 -.00000257  00000+0 -39404-5 0  9995
2 55599  43.0017 170.5233 0001018 273.1560  86.9166 15.02533284114291
STARLINK-5755           
1 55600U 23020AH  25069.57463348 -.00000808  00000+0 -44778-4 0  9996
2 55600  43.0021 170.4468 0000592 253.4174 106.6603 15.02528587114292
STARLINK-5744           
1 55601U 23020AJ  25069.71720173 -.00000643  00000+0 -32571-4 0  9990
2 55601  43.0046 181.9147 0001268 268.7073  91.3624 15.02528844114175
STARLINK-5764           
1 55602U 23020AK  25069.65110377 -.00001152  00000+0 -70269-4 0  9995
2 55602  43.0011 170.1414 0000971 276.5389  83.5342 15.02525220114302
STARLINK-5735           
1 55603U 23020AL  25069.57796123  .00000529  00000+0  54232-4 0  9993
2 55603  43.0053 170.4762 0000664 259.4599 100.6169 15.02529031114290
STARLINK-5748           
1 55604U 23020AM  25069.54714134 -.00000637  00000+0 -32065-4 0  9995
2 55604  43.0020 157.2341 0001020 264.5224  95.5502 15.02532039114442
STARLINK-5725           
1 55605U 23020AN  25069.64001695 -.00001834  00000+0 -12075-3 0  9996
2 55605  43.0000 170.0767 0000854 277.4932  82.5813 15.02525112114309
STARLINK-5700           
1 55607U 23020AQ  25068.70264972  .00000176  00000+0  28114-4 0  9991
2 55607  43.0034 175.0855 0001205 263.4874  96.5832 15.02536623114161
STARLINK-5726           
1 55608U 23020AR  25069.56463815  .00000648  00000+0  63062-4 0  9999
2 55608  43.0049 170.3738 0000807 260.9446  99.1305 15.02538262114299
STARLINK-5719           
1 55609U 23020AS  25069.57019767 -.00000595  00000+0 -28984-4 0  9991
2 55609  43.0040 170.4111 0001161 269.6038  90.4672 15.02526760114295
STARLINK-5722           
1 55610U 23020AT  25068.55969684  .00000288  00000+0  36371-4 0  9998
2 55610  43.0019 175.7320 0001441 271.2198  88.8479 15.02539914114145
