OBJECT_NAME,OBJECT_ID,EPOCH,MEAN_MOTION,ECCENTRICITY,INCLINATION,RA_OF_ASC_NODE,ARG_OF_PERICENTER,MEAN_ANOMALY,EPHEMERIS_TYPE,CLASSIFICATION_TYPE,NORAD_CAT_ID,ELEMENT_SET_NO,REV_AT_EPOCH,BSTAR,MEAN_MOTION_DOT,MEAN_MOTION_DDOT
STARLINK-5757,2023-020M,2025-03-09T22:38:19.687488,15.02525225,.0001954,43.0030,160.4368,269.4221,90.6398,0,U,55580,999,11435,.23647E-3,.2991E-4,0
STARLINK-5753,2023-020N,2025-03-10T11:52:11.416512,15.02527356,.0001039,43.0017,183.6808,272.8083,87.2641,0,U,55581,999,11413,-.19221E-4,-.463E-5,0
STARLINK-5741,2023-020P,2025-03-10T15:00:03.616704,15.01722385,.0001999,43.0049,169.9770,259.4667,100.5949,0,U,55582,999,11430,-.28225E-4,-.575E-5,0
STARLINK-5742,2023-020Q,2025-03-10T16:29:47.376096,15.02526216,.000134,43.0020,182.5500,296.3028,63.7676,0,U,55583,999,11416,-.7246E-5,-.301E-5,0
STARLINK-5736,2023-020R,2025-03-10T14:50:51.938880,15.02524135,.0000889,43.0018,182.8931,291.3810,68.6938,0,U,55584,999,11415,-.67159E-4,-.111E-4,0
STARLINK-5769,2023-020S,2025-03-10T17:11:43.504800,15.02526608,.0001338,43.0035,169.8087,267.8618,92.2071,0,U,55585,999,11431,-.10854E-3,-.1669E-4,0
STARLINK-5767,2023-020T,2025-03-10T08:16:44.661504,15.02527629,.0001489,43.0039,184.2827,275.9289,84.1383,0,U,55586,999,11411,-.41314E-4,-.762E-5,0
STARLINK-5727,2023-020U,2025-03-10T14:47:39.092352,15.02530781,.0000946,43.0027,182.8169,266.0986,93.9748,0,U,55587,999,11415,-.78096E-4,-.1258E-4,0
STARLINK-5728,2023-020V,2025-03-10T16:05:48.863616,15.02530293,.0000822,43.0012,182.4268,258.5117,101.5633,0,U,55588,999,11416,-.63228E-4,-.1057E-4,0
STARLINK-5697,2023-020W,2025-03-10T14:38:03.397920,15.02538960,.0001185,43.0018,182.8214,274.6166,85.4541,0,U,55589,999,11415,.20066E-4,.68E-6,0
STARLINK-5762,2023-020X,2025-03-10T15:56:13.192512,15.02527095,.0002088,43.0054,182.3754,245.5525,114.5100,0,U,55590,999,11416,-.72501E-4,-.1183E-4,0
STARLINK-5760,2023-020Y,2025-03-10T16:10:35.703840,15.02536870,.0000912,43.0016,182.4502,278.4154,81.6585,0,U,55591,999,11416,.3329E-4,.246E-5,0
STARLINK-5759,2023-020Z,2025-03-10T12:38:21.112800,15.02541341,.0001102,43.0000,183.0628,248.3333,111.7392,0,U,55592,999,11414,.85351E-4,.95E-5,0
STARLINK-5703,2023-020AA,2025-03-10T14:25:17.207904,15.02531655,.0001278,43.0016,182.7603,267.5372,92.5325,0,U,55593,999,11415,-.62066E-4,-.1042E-4,0
STARLINK-5750,2023-020AB,2025-03-10T15:45:01.762560,15.02530142,.0001161,43.0031,182.3168,274.7330,85.3380,0,U,55594,999,11416,.72238E-4,.772E-5,0
STARLINK-5740,2023-020AC,2025-03-10T15:54:37.304064,15.02504319,.0000897,43.0016,182.3612,233.0705,127.0055,0,U,55595,999,11416,.42071E-3,.5479E-4,0
STARLINK-5729,2023-020AD,2025-03-10T15:41:49.818912,15.02529566,.0001256,43.0024,182.3014,271.8505,88.2193,0,U,55596,999,11416,.55747E-5,-.128E-5,0
STARLINK-5743,2023-020AE,2025-03-10T13:55:27.656544,15.02534677,.000129,43.0034,170.5059,274.7488,85.3207,0,U,55597,999,11429,.50255E-4,.475E-5,0
STARLINK-5756,2023-020AF,2025-03-10T09:22:39.135072,15.02527649,.0001593,43.0015,171.6291,261.8764,98.1897,0,U,55598,999,11426,-.29404E-3,-.4172E-4,0
STARLINK-5761,2023-020AG,2025-03-10T14:05:02.753088,15.02533284,.0001018,43.0017,170.5233,273.1560,86.9166,0,U,55599,999,11429,-.39404E-5,-.257E-5,0
STARLINK-5755,2023-020AH,2025-03-10T13:47:28.332672,15.02528587,.0000592,43.0021,170.4468,253.4174,106.6603,0,U,55600,999,11429,-.44778E-4,-.808E-5,0
STARLINK-5744,2023-020AJ,2025-03-10T17:12:46.229472,15.02528844,.0001268,43.0046,181.9147,268.7073,91.3624,0,U,55601,999,11417,-.32571E-4,-.643E-5,0
STARLINK-5764,2023-020AK,2025-03-10T15:37:35.365728,15.02525220,.0000971,43.0011,170.1414,276.5389,83.5342,0,U,55602,999,11430,-.70269E-4,-.1152E-4,0
STARLINK-5735,2023-020AL,2025-03-10T13:52:15.850272,15.02529031,.0000664,43.0053,170.4762,259.4599,100.6169,0,U,55603,999,11429,.54232E-4,.529E-5,0
STARLINK-5748,2023-020AM,2025-03-10T13:07:53.011776,15.02532039,.000102,43.0020,157.2341,264.5224,95.5502,0,U,55604,999,11444,-.32065E-4,-.637E-5,0
STARLINK-5725,2023-020AN,2025-03-10T15:21:37.464480,15.02525112,.0000854,43.0000,170.0767,277.4932,82.5813,0,U,55605,999,11430,-.12075E-3,-.1834E-4,0
STARLINK-5700,2023-020AQ,2025-03-09T16:51:48.935808,15.02536623,.0001205,43.0034,175.0855,263.4874,96.5832,0,U,55607,999,11416,.28114E-4,.176E-5,0
STARLINK-5726,2023-020AR,2025-03-10T13:33:04.736160,15.02538262,.0000807,43.0049,170.3738,260.9446,99.1305,0,U,55608,999,11429,.63062E-4,.648E-5,0
STARLINK-5719,2023-020AS,2025-03-10T13:41:05.078688,15.02526760,.0001161,43.0040,170.4111,269.6038,90.4672,0,U,55609,999,11429,-.28984E-4,-.595E-5,0
STARLINK-5722,2023-020AT,2025-03-09T13:25:57.806976,15.02539914,.0001441,43.0019,175.7320,271.2198,88.8479,0,U,55610,999,11414,.36371E-4,.288E-5,0
